
    <kml xmlns="http://www.opengis.net/kml/2.2" xmlns:gx="http://www.google.com/kml/ext/2.2" xmlns:xsi="http://www.w3.org/2001/XMLSchema-instance" xsi:schemaLocation="http://www.opengis.net/kml/2.2 https://developers.google.com/kml/schema/kml22gx.xsd">
    <Document>
    <name>Zeichnung</name>
<Placemark id="marker_1">
<ExtendedData>
<Data name="type">
<value>marker</value>
</Data>
</ExtendedData>
<name>1</name>
<description>Fässler Willi -  </description>
<Style>
<IconStyle>
<Icon>
<href>https://api3.geo.admin.ch/color/255,0,0/marker-24@2x.png</href>
<gx:w>48</gx:w>
<gx:h>48</gx:h>
</Icon>
<hotSpot x="24" y="4.799999999999997" xunits="pixels" yunits="pixels"/>
</IconStyle>
<LabelStyle>
<color>ff0000ff</color>
<scale>1.5</scale>
</LabelStyle>
</Style>
<Point>
<tessellate>1</tessellate>
<altitudeMode>clampToGround</altitudeMode>
<coordinates>9.57015,47.42183</coordinates>
</Point>
</Placemark>

<Placemark id="marker_2">
<ExtendedData>
<Data name="type">
<value>marker</value>
</Data>
</ExtendedData>
<name>2</name>
<description>Graf Gertrud -  </description>
<Style>
<IconStyle>
<Icon>
<href>https://api3.geo.admin.ch/color/255,0,0/marker-24@2x.png</href>
<gx:w>48</gx:w>
<gx:h>48</gx:h>
</Icon>
<hotSpot x="24" y="4.799999999999997" xunits="pixels" yunits="pixels"/>
</IconStyle>
<LabelStyle>
<color>ff0000ff</color>
<scale>1.5</scale>
</LabelStyle>
</Style>
<Point>
<tessellate>1</tessellate>
<altitudeMode>clampToGround</altitudeMode>
<coordinates>9.57151,47.42584</coordinates>
</Point>
</Placemark>

<Placemark id="marker_3">
<ExtendedData>
<Data name="type">
<value>marker</value>
</Data>
</ExtendedData>
<name>3</name>
<description>B... -  </description>
<Style>
<IconStyle>
<Icon>
<href>https://api3.geo.admin.ch/color/255,0,0/marker-24@2x.png</href>
<gx:w>48</gx:w>
<gx:h>48</gx:h>
</Icon>
<hotSpot x="24" y="4.799999999999997" xunits="pixels" yunits="pixels"/>
</IconStyle>
<LabelStyle>
<color>ff0000ff</color>
<scale>1.5</scale>
</LabelStyle>
</Style>
<Point>
<tessellate>1</tessellate>
<altitudeMode>clampToGround</altitudeMode>
<coordinates>9.55365,47.42286</coordinates>
</Point>
</Placemark>

<Placemark id="marker_4">
<ExtendedData>
<Data name="type">
<value>marker</value>
</Data>
</ExtendedData>
<name>4</name>
<description>Bischofberger Paula -  </description>
<Style>
<IconStyle>
<Icon>
<href>https://api3.geo.admin.ch/color/255,0,0/marker-24@2x.png</href>
<gx:w>48</gx:w>
<gx:h>48</gx:h>
</Icon>
<hotSpot x="24" y="4.799999999999997" xunits="pixels" yunits="pixels"/>
</IconStyle>
<LabelStyle>
<color>ff0000ff</color>
<scale>1.5</scale>
</LabelStyle>
</Style>
<Point>
<tessellate>1</tessellate>
<altitudeMode>clampToGround</altitudeMode>
<coordinates>9.55069,47.42233</coordinates>
</Point>
</Placemark>


    </Document>
    </kml>
